#dP2022  4 24  6  0  0.00000000      96 __u+U ITR00 EXT  IAC
## 2207  21600.00000000   900.00000000 59693 0.2500000000000
+  117   C06C07C08C09C10C11C12C13C14C16C19C20C21C22C23C24C25
+        C26C27C28C29C30C32C33C34C35C36C37C38C39C40C41C42C43
+        C44C45C46E01E02E03E04E05E07E08E09E10E11E12E13E14E15
+        E18E19E21E24E25E26E27E30E31E33E34E36G01G02G03G04G05
+        G06G07G08G09G10G11G12G13G14G15G16G17G18G19G20G21G22
+        G23G24G25G26G27G28G29G30G31G32J02J03R01R02R03R04R05
+        R07R08R09R11R12R13R14R15R17R18R19R20R21R22R24  0  0
++        10 10  9  9  9  8  8  9  9  9 10  8 10  8  9  9  8
++        10  9  9 10 10  8  9 10 10  9  9  9 10 11  7  9  8
++         8  9 10  8  8  9  9  9  8  8  8  9  8  7 10  8  9
++         8  8  8  9  9 10  8  8  8  9  9  8  8  8  8  8  9
++         8  8  8  8  8  9  8  8  8  8  7  8  8  9  8  8  8
++         8  8  8  7  8  8  8  8  8  8  9  9  9 10  9  7  9
++         9  8  8  8  9 10  8  9  8  9  7  8  8  8  8  0  0
%c M  cc GPS ccc cccc cccc cccc cccc ccccc ccccc ccccc ccccc
%c cc cc ccc ccc cccc cccc cccc cccc ccccc ccccc ccccc ccccc
%f  0.0000000  0.000000000  0.00000000000  0.000000000000000
%f  0.0000000  0.000000000  0.00000000000  0.000000000000000
%i    0    0    0    0      0      0      0      0         0
%i    0    0    0    0      0      0      0      0         0
/* IAC                                ULTRA-RAPID PREDICTION
/* S/V CLOCKS ARE ALIGNED TO GNSS TIME                      
/* G:C1WC2W R:C1PC2P E:C1XC5X C:C2IC6I J:C1CC2S             
/* PCV:IGS14_2196 OL/AL:FES2004  NONE     YN ORB:CoN CLK:CoN
*  2022 04 25  3 45  0.00000000
PC06  -6769.579495  39769.321308 -11874.942957   -140.908137
PC07  -7690.909876  25875.382286  32395.265826    -83.317404
PC08 -20781.282572  29519.096680 -21894.418454    278.061709
PC09  -1027.263571  41827.221046  -1551.233913   -727.711972
PC10   1768.414129  28442.285999  31428.408142    135.027765
PC11 -14525.412515 -11651.605214  20834.825798    312.642948
PC12  -7087.638936 -25924.549873   7527.037480   -624.662858
PC13 -11897.288285  29752.069123 -27407.025311    -51.096214
PC14 -25658.988066 -10852.382298   -857.847656    462.643101
PC16  -7869.102570  38676.458152 -14289.357029    123.768568
PC19  25735.563083   3909.513834  10121.447154    875.416638
PC20  22463.647849  15151.881177  -6727.222111   -890.024596
PC21  -5341.559502 -18004.095287  20656.063157   -173.544356
PC22  14290.929481 -10014.358836  21791.588827   -971.017600
PC23 -20966.358276  18067.432647   3575.701680   -931.259503
PC24 -12288.161264 -11078.432222 -22485.555546   -956.788257
PC25 -23928.719955   6418.596563 -12871.946625   -746.070595
PC26   4449.153573 -20142.815958 -18790.261530    746.976648
PC27   1498.946873  27827.819239   1222.309871    713.132290
PC28 -10035.620025  19833.688366  16870.809102     59.242490
PC29  15971.207066   -259.608613 -22892.447440    545.938248
PC30  12769.616467  19942.380946 -14753.833166    497.485613
PC32   5493.190609  17960.244806 -20622.299046   -962.727656
PC33 -25756.037369  -3831.697202  -9996.063561   -966.571251
PC34 -13144.872401 -19179.111362  15436.409179   -417.997454
PC35   9899.857529 -19423.176308 -17454.164810    244.385076
PC36  23941.577718  -5401.457717  13299.588664   -963.851476
PC37  -6115.509440  20331.625408  18132.352769   -919.221162
PC38 -25429.978528  30335.019751 -14691.008798    227.554161
PC39  -9908.247220  35438.459490 -20402.938440     34.953692
PC40 -11657.999560  19574.271835  35455.253327    263.679191
PC41 -14673.565631   9777.307528 -21571.798426   -966.365014
PC42 -21797.719979 -15604.023388   7762.692812   -956.707884
PC43 -16138.741819   -630.496713  22746.603440   -927.942807
PC44  -2309.889882 -27792.833020  -1463.316123    638.760055
PC45  20810.859789 -18172.156463  -3851.452090    740.189469
PC46  13491.657822   9872.878789  22339.138609   -290.057995
PE01  27186.978516   4521.453959  10785.827929   -622.923511
PE02 -27275.361404  -4416.531623 -10646.956180    295.017784
PE03 -22248.380603 -13395.047846 -14188.659934   -551.556255
PE04  16536.654742  -5910.130627  23840.825873  -1013.917328
PE05 -14986.080214 -25210.678519   4004.639650   -187.668662
PE07   -860.814838  22185.260334 -19569.640055   -662.006866
PE08 -16203.046800   6196.052861 -23975.658557   -518.102982
PE09    586.200536 -22186.900703  19587.108565   -495.977646
PE10  15711.985997 -23841.978399  -7819.785304   -508.856007
PE11  10258.794488 -27667.398369   2473.268010   3861.124065
PE12  18595.235889 -16361.632303 -16231.225153   4645.963546
PE13 -10610.907546  27566.505455  -1803.836704    428.253258
PE14   2804.710443  25376.371676  10294.297775  -1826.070915
PE15 -18518.228154  16263.677764  16387.202573    749.615057
PE18   8503.528985 -20308.016800 -19595.089962  -1524.786366
PE19  21985.114818  15557.065240  12290.761307  -3582.981055
PE21  12485.690498  14221.264292  22754.254346   -730.430652
PE24  11625.832051 -16223.176122 -21867.453558   -579.559606
PE25 -12209.939353 -14316.365644 -22850.154006   -571.616924
PE26   4232.045436  22005.920586 -19335.364068  -1069.658908
PE27 -10288.848144  16419.046555  22378.693865   -283.983201
PE30 -27314.704712   8249.913875   7893.871211   -458.194348
PE31  26796.959959  -8934.027172  -8836.510816   -495.601379
PE33  15473.190128   4550.264703 -24819.824258   -457.283362
PE34 -15559.890493  -4316.837355  24799.228967   -513.789700
PE36  -3459.487623 -22610.643537  18795.299744   -364.483860
PG01 -13825.913587  22444.517768    124.744800    377.334600
PG02  17552.805911  -7917.169121 -17705.226321   -653.232670
PG03 -13353.816573  12835.469075 -19097.564275   -220.039781
PG04  -5226.416665  18182.523489 -18596.745473   -173.057164
PG05  25020.655866  -5648.286131   7027.841179    -79.525704
PG06  11556.868497   9058.867832 -22064.813322    279.112849
PG07  -1771.326997  22442.972013  14084.355522    321.055758
PG08 -11960.141531   9407.246868  21712.699302    -65.333399
PG09   4658.987556  23641.744431 -11199.829277   -341.435158
PG10 -17060.941109 -11710.483965  16961.853248   -390.969007
PG11  18844.329758  -5914.230175 -17752.735876    -34.304989
PG12  17554.588076 -10384.427339 -17213.437274   -205.550090
PG13  15812.258098    337.938279  21213.365265    300.143724
PG14  15544.396476  13026.709125  17188.920032   -104.761878
PG15  10792.158581 -11597.428915  20886.032605    -66.302059
PG16 -26602.724901   -658.048007   2991.866143   -494.963073
PG17  13952.789032  22027.402101  -4471.131674    604.608116
PG18   3174.097501 -22590.523045  13503.710031    186.952900
PG19  16276.085382  17580.476512 -11943.798764    148.839273
PG20  26175.448634  -1279.909486  -3442.221557    515.669972
PG21 -17220.336170  16369.301948  11785.729876    160.707335
PG22 -17080.767412 -15288.870692 -13155.265538    248.755809
PG23  -5441.680973 -14681.415763  21458.721037    -17.431606
PG24  14474.371355 -21413.078883   4779.822320    251.686119
PG25   2691.939682 -15336.420409 -21786.755079    316.402177
PG26 -24794.485162  -5228.593025  -8556.251600    201.087690
PG27 -17430.274945  -3734.369592  19607.089592    190.703506
PG28  21898.175591  10150.169031  11330.554784    367.593127
PG29  -2143.209509 -23598.137138 -11988.736344   -506.765581
PG30   5774.835836  17466.524478  19151.194903   -525.260952
PG31 -13958.096205  -6664.459181 -21738.485291   -174.881306
PG32 -16529.516265 -19863.877817  -6406.208293   -112.725460
PJ02 -30136.320846  25161.308977  20383.166752     -2.986629
PJ03 -27822.508229  26376.277201  22576.314561     -1.736988
PR01  12532.143340  -4275.402610  21812.937472      8.093664
PR02  -5761.899520 -15387.675443  19582.157551    516.521945
PR03 -18881.400360 -16322.265981   5450.703484     55.525287
PR04 -21169.811557  -8307.574017 -11528.048028    138.372446
PR05 -11888.666092   4274.245734 -22146.052461     91.754539
PR07  19218.400857  16086.081194  -4579.264597     34.266821
PR08  21191.851474   8010.520711  11761.485222    -64.794648
PR09  -6636.743381  14316.558261  20031.370207     51.600789
PR11  21981.410598  -4316.187672  12221.300940     40.406101
PR12  20924.680970 -13211.872505  -6125.650276     18.088362
PR13   8088.133137 -14355.121293 -19489.603971    -21.382766
PR14 -10817.944784  -6673.131246 -22104.240245     76.894577
PR15 -22339.757563   4519.453537 -11435.217212     96.583417
PR17  -5809.141574 -18596.231445  16450.679614    520.475611
PR18 -10267.791381  -2149.785011  23262.567684    114.686868
PR19 -10077.573395  14300.930027  18557.410813   -186.671311
PR20  -3424.107617  25246.770583    500.446490    -69.303370
PR21   6226.070696  17497.307411 -17499.953624   -296.043143
PR22  10334.551834   1070.936360 -23313.689012   -179.055455
PR24   2482.263760 -25382.786028    235.784023     90.693186
EOF
